[{"name":"Afghanistan","nativeName":"Af\u0121\u0101nist\u0101n","tld":".af","cca2":"AF","ccn3":"004","cca3":"AFG","currency":"AFN","callingCode":"93","capital":"Kabul","altSpellings":"AF,Af\u0121\u0101nist\u0101n","relevance":"0","region":"Asia","subregion":"Southern Asia","language":"Pashto,Dari"},
{"name":"\u00c5land Islands","nativeName":"\u00c5land","tld":".ax","cca2":"AX","ccn3":"248","cca3":"ALA","currency":"EUR","callingCode":"358","capital":"Mariehamn","altSpellings":"AX,Aaland,Aland,Ahvenanmaa","relevance":"0","region":"Europe","subregion":"Northern Europe","language":"Swedish"},
{"name":"Albania","nativeName":"Shqip\u00ebria","tld":".al","cca2":"AL","ccn3":"008","cca3":"ALB","currency":"ALL","callingCode":"355","capital":"Tirana","altSpellings":"AL,Shqip\u00ebri,Shqip\u00ebria,Shqipnia","relevance":"0","region":"Europe","subregion":"Southern Europe","language":"Albanian"},
{"name":"Algeria","nativeName":"al-Jaz\u0101\u02bcir","tld":".dz","cca2":"DZ","ccn3":"012","cca3":"DZA","currency":"DZD","callingCode":"213","capital":"Algiers","altSpellings":"DZ,Dzayer,Alg\u00e9rie","relevance":"0","region":"Africa","subregion":"Northern Africa","language":"Arabic"},
{"name":"American Samoa","nativeName":"American Samoa","tld":".as","cca2":"AS","ccn3":"016","cca3":"ASM","currency":"USD","callingCode":"1684","capital":"Pago Pago","altSpellings":"AS,Amerika S\u0101moa,Amelika S\u0101moa,S\u0101moa Amelika","relevance":"0.5","region":"Oceania","subregion":"Polynesia","language":"English,Samoan"},
{"name":"Andorra","nativeName":"Andorra","tld":".ad","cca2":"AD","ccn3":"020","cca3":"AND","currency":"EUR","callingCode":"376","capital":"Andorra la Vella","altSpellings":"AD,Principality of Andorra,Principat d'Andorra","relevance":"0.5","region":"Europe","subregion":"Southern Europe","language":"Catalan"},
{"name":"Angola","nativeName":"Angola","tld":".ao","cca2":"AO","ccn3":"024","cca3":"AGO","currency":"AOA","callingCode":"244","capital":"Luanda","altSpellings":"AO,Rep\u00fablica de Angola,\u0281\u025bpublika de an'\u0261\u0254la","relevance":"0","region":"Africa","subregion":"Middle Africa","language":"Portuguese"},
{"name":"Anguilla","nativeName":"Anguilla","tld":".ai","cca2":"AI","ccn3":"660","cca3":"AIA","currency":"XCD","callingCode":"1264","capital":"The Valley","altSpellings":"AI","relevance":"0.5","region":"Americas","subregion":"Caribbean","language":"English"},
{"name":"Antarctica","nativeName":"","tld":".aq","cca2":"AQ","ccn3":"010","cca3":"ATA","currency":"","callingCode":"","capital":"","altSpellings":"AQ","relevance":"0","region":"","subregion":"","language":""},
{"name":"Argentina","nativeName":"Argentina","tld":".ar","cca2":"AR","ccn3":"032","cca3":"ARG","currency":"ARS","callingCode":"54","capital":"Buenos Aires","altSpellings":"AR,Argentine Republic,Rep\u00fablica Argentina","relevance":"0","region":"Americas","subregion":"South America","language":"Spanish"},
{"name":"Armenia","nativeName":"\u0540\u0561\u0575\u0561\u057d\u057f\u0561\u0576","tld":".am","cca2":"AM","ccn3":"051","cca3":"ARM","currency":"AMD","callingCode":"374","capital":"Yerevan","altSpellings":"AM,Hayastan,Republic of Armenia,\u0540\u0561\u0575\u0561\u057d\u057f\u0561\u0576\u056b \u0540\u0561\u0576\u0580\u0561\u057a\u0565\u057f\u0578\u0582\u0569\u0575\u0578\u0582\u0576","relevance":"0","region":"Asia","subregion":"Western Asia","language":"Armenian"},
{"name":"Australia","nativeName":"Australia","tld":".au","cca2":"AU","ccn3":"036","cca3":"AUS","currency":"AUD","callingCode":"61","capital":"Canberra","altSpellings":"AU","relevance":"1.5","region":"Oceania","subregion":"Australia,New Zealand","language":"English"},
{"name":"Austria","nativeName":"\u00d6sterreich","tld":".at","cca2":"AT","ccn3":"040","cca3":"AUT","currency":"EUR","callingCode":"43","capital":"Vienna","altSpellings":"AT,\u00d6sterreich,Osterreich,Oesterreich","relevance":"0","region":"Europe","subregion":"Western Europe","language":"German"},
{"name":"Azerbaijan","nativeName":"Az\u0259rbaycan","tld":".az","cca2":"AZ","ccn3":"031","cca3":"AZE","currency":"AZN","callingCode":"994","capital":"Baku","altSpellings":"AZ,Republic of Azerbaijan,Az\u0259rbaycan Respublikas\u0131","relevance":"0","region":"Asia","subregion":"Western Asia","language":"Azerbaijani"},
{"name":"Bahamas","nativeName":"Bahamas","tld":".bs","cca2":"BS","ccn3":"044","cca3":"BHS","currency":"BSD","callingCode":"1242","capital":"Nassau","altSpellings":"BS,Commonwealth of the Bahamas","relevance":"0","region":"Americas","subregion":"Caribbean","language":"English"},
{"name":"Bahrain","nativeName":"al-Ba\u1e25rayn","tld":".bh","cca2":"BH","ccn3":"048","cca3":"BHR","currency":"BHD","callingCode":"973","capital":"Manama","altSpellings":"BH,Kingdom of Bahrain,Mamlakat al-Ba\u1e25rayn","relevance":"0","region":"Asia","subregion":"Western Asia","language":"Arabic"},
{"name":"Bangladesh","nativeName":"Bangladesh","tld":".bd","cca2":"BD","ccn3":"050","cca3":"BGD","currency":"BDT","callingCode":"880","capital":"Dhaka","altSpellings":"BD,People's Republic of Bangladesh,G\u00f4n\u00f4pr\u00f4jat\u00f4ntri Bangladesh","relevance":"2","region":"Asia","subregion":"Southern Asia","language":"Bangla"},
{"name":"Barbados","nativeName":"Barbados","tld":".bb","cca2":"BB","ccn3":"052","cca3":"BRB","currency":"BBD","callingCode":"1246","capital":"Bridgetown","altSpellings":"BB","relevance":"0","region":"Americas","subregion":"Caribbean","language":"English"},
{"name":"Belarus","nativeName":"\u0411\u0435\u043b\u0430\u0440\u0443\u0301\u0441\u044c","tld":".by","cca2":"BY","ccn3":"112","cca3":"BLR","currency":"BYR","callingCode":"375","capital":"Minsk","altSpellings":"BY,Bielaru\u015b,Republic of Belarus,\u0411\u0435\u043b\u043e\u0440\u0443\u0441\u0441\u0438\u044f,\u0420\u0435\u0441\u043f\u0443\u0431\u043b\u0438\u043a\u0430 \u0411\u0435\u043b\u0430\u0440\u0443\u0441\u044c,Belorussiya,Respublika Belarus\u2019","relevance":"0","region":"Europe","subregion":"Eastern Europe","language":"Belarusian,Russian"},
{"name":"Belgium","nativeName":"Belgi\u00eb","tld":".be","cca2":"BE","ccn3":"056","cca3":"BEL","currency":"EUR","callingCode":"32","capital":"Brussels","altSpellings":"BE,Belgi\u00eb,Belgie,Belgien,Belgique,Kingdom of Belgium,Koninkrijk Belgi\u00eb,Royaume de Belgique,K\u00f6nigreich Belgien","relevance":"1.5","region":"Europe","subregion":"Western Europe","language":"Dutch,French,German"},
{"name":"Belize","nativeName":"Belize","tld":".bz","cca2":"BZ","ccn3":"084","cca3":"BLZ","currency":"BZD","callingCode":"501","capital":"Belmopan","altSpellings":"BZ","relevance":"0","region":"Americas","subregion":"Central America","language":"English"},
{"name":"Benin","nativeName":"B\u00e9nin","tld":".bj","cca2":"BJ","ccn3":"204","cca3":"BEN","currency":"XOF","callingCode":"229","capital":"Porto-Novo","altSpellings":"BJ,Republic of Benin,R\u00e9publique du B\u00e9nin","relevance":"0","region":"Africa","subregion":"Western Africa","language":"French"},
{"name":"Bhutan","nativeName":"\u02bcbrug-yul","tld":".bt","cca2":"BT","ccn3":"064","cca3":"BTN","currency":"BTN,INR","callingCode":"975","capital":"Thimphu","altSpellings":"BT,Kingdom of Bhutan","relevance":"0","region":"Asia","subregion":"Southern Asia","language":"Dzongkha"},
{"name":"Bolivia","nativeName":"Bolivia","tld":".bo","cca2":"BO","ccn3":"068","cca3":"BOL","currency":"BOB,BOV","callingCode":"591","capital":"Sucre","altSpellings":"BO,Buliwya,Wuliwya,Plurinational State of Bolivia,Estado Plurinacional de Bolivia,Buliwya Mamallaqta,Wuliwya Suyu,Tet\u00e3 Vol\u00edvia","relevance":"0","region":"Americas","subregion":"South America","language":"Spanish,Quechua,Aymara,Guaran\u00ed"},
{"name":"Bosnia and Herzegovina","nativeName":"Bosna i Hercegovina","tld":".ba","cca2":"BA","ccn3":"070","cca3":"BIH","currency":"BAM","callingCode":"387","capital":"Sarajevo","altSpellings":"BA,Bosnia-Herzegovina,\u0411\u043e\u0441\u043d\u0430 \u0438 \u0425\u0435\u0440\u0446\u0435\u0433\u043e\u0432\u0438\u043d\u0430","relevance":"0","region":"Europe","subregion":"Southern Europe","language":"Bosnian,Croatian,Serbian"},
{"name":"Botswana","nativeName":"Botswana","tld":".bw","cca2":"BW","ccn3":"072","cca3":"BWA","currency":"BWP","callingCode":"267","capital":"Gaborone","altSpellings":"BW,Republic of Botswana,Lefatshe la Botswana","relevance":"0","region":"Africa","subregion":"Southern Africa","language":"English,Setswana"},
{"name":"Brazil","nativeName":"Brasil","tld":".br","cca2":"BR","ccn3":"076","cca3":"BRA","currency":"BRL","callingCode":"55","capital":"Bras\u00edlia","altSpellings":"BR,Brasil,Federative Republic of Brazil,Rep\u00fablica Federativa do Brasil","relevance":"2","region":"Americas","subregion":"South America","language":"Portuguese"},
{"name":"British Virgin Islands","nativeName":"British Virgin Islands","tld":".vg","cca2":"VG","ccn3":"092","cca3":"VGB","currency":"USD","callingCode":"1284","capital":"Road Town","altSpellings":"VG","relevance":"0.5","region":"Americas","subregion":"Caribbean","language":"English"},
{"name":"Brunei","nativeName":"Negara Brunei Darussalam","tld":".bn","cca2":"BN","ccn3":"096","cca3":"BRN","currency":"BND","callingCode":"673","capital":"Bandar Seri Begawan","altSpellings":"BN,Nation of Brunei, the Abode of Peace","relevance":"0","region":"Asia","subregion":"South-Eastern Asia","language":"Malay"},
{"name":"Bulgaria","nativeName":"\u0411\u044a\u043b\u0433\u0430\u0440\u0438\u044f","tld":".bg","cca2":"BG","ccn3":"100","cca3":"BGR","currency":"BGN","callingCode":"359","capital":"Sofia","altSpellings":"BG,Republic of Bulgaria,\u0420\u0435\u043f\u0443\u0431\u043b\u0438\u043a\u0430 \u0411\u044a\u043b\u0433\u0430\u0440\u0438\u044f","relevance":"0","region":"Europe","subregion":"Eastern Europe","language":"Bulgarian"},
{"name":"Burkina Faso","nativeName":"Burkina Faso","tld":".bf","cca2":"BF","ccn3":"854","cca3":"BFA","currency":"XOF","callingCode":"226","capital":"Ouagadougou","altSpellings":"BF","relevance":"0","region":"Africa","subregion":"Western Africa","language":"French"},
{"name":"Burundi","nativeName":"Burundi","tld":".bi","cca2":"BI","ccn3":"108","cca3":"BDI","currency":"BIF","callingCode":"257","capital":"Bujumbura","altSpellings":"BI,Republic of Burundi,Republika y'Uburundi,R\u00e9publique du Burundi","relevance":"0","region":"Africa","subregion":"Eastern Africa","language":"Kirundi,French"},
{"name":"Cambodia","nativeName":"K\u00e2mp\u016dch\u00e9a","tld":".kh","cca2":"KH","ccn3":"116","cca3":"KHM","currency":"KHR","callingCode":"855","capital":"Phnom Penh","altSpellings":"KH,Kingdom of Cambodia","relevance":"0","region":"Asia","subregion":"South-Eastern Asia","language":"Khmer"},
{"name":"Cameroon","nativeName":"Cameroon","tld":".cm","cca2":"CM","ccn3":"120","cca3":"CMR","currency":"XAF","callingCode":"237","capital":"Yaound\u00e9","altSpellings":"CM,Republic of Cameroon,R\u00e9publique du Cameroun","relevance":"0","region":"Africa","subregion":"Middle Africa","language":"French,English"},
{"name":"Canada","nativeName":"Canada","tld":".ca","cca2":"CA","ccn3":"124","cca3":"CAN","currency":"CAD","callingCode":"1","capital":"Ottawa","altSpellings":"CA","relevance":"2","region":"Americas","subregion":"Northern America","language":"English,French"},
{"name":"Cape Verde","nativeName":"Cabo Verde","tld":".cv","cca2":"CV","ccn3":"132","cca3":"CPV","currency":"CVE","callingCode":"238","capital":"Praia","altSpellings":"CV,Republic of Cabo Verde,Rep\u00fablica de Cabo Verde","relevance":"0","region":"Africa","subregion":"Western Africa","language":"Portuguese"},
{"name":"Cayman Islands","nativeName":"Cayman Islands","tld":".ky","cca2":"KY","ccn3":"136","cca3":"CYM","currency":"KYD","callingCode":"1345","capital":"George Town","altSpellings":"KY","relevance":"0.5","region":"Americas","subregion":"Caribbean","language":"English"},
{"name":"Central African Republic","nativeName":"K\u00f6d\u00f6r\u00f6s\u00ease t\u00ee B\u00eaafr\u00eeka","tld":".cf","cca2":"CF","ccn3":"140","cca3":"CAF","currency":"XAF","callingCode":"236","capital":"Bangui","altSpellings":"CF,Central African Republic,R\u00e9publique centrafricaine","relevance":"0","region":"Africa","subregion":"Middle Africa","language":"Sango,French"},
{"name":"Chad","nativeName":"Tchad","tld":".td","cca2":"TD","ccn3":"148","cca3":"TCD","currency":"XAF","callingCode":"235","capital":"N'Djamena","altSpellings":"TD,Tchad,Republic of Chad,R\u00e9publique du Tchad","relevance":"0","region":"Africa","subregion":"Middle Africa","language":"French,Arabic"},
{"name":"Chile","nativeName":"Chile","tld":".cl","cca2":"CL","ccn3":"152","cca3":"CHL","currency":"CLF,CLP","callingCode":"56","capital":"Santiago","altSpellings":"CL,Republic of Chile,Rep\u00fablica de Chile","relevance":"0","region":"Americas","subregion":"South America","language":"Spanish"},
{"name":"China","nativeName":"\u4e2d\u56fd","tld":".cn","cca2":"CN","ccn3":"156","cca3":"CHN","currency":"CNY","callingCode":"86","capital":"Beijing","altSpellings":"CN,Zh\u014dnggu\u00f3,Zhongguo,Zhonghua,People's Republic of China,\u4e2d\u534e\u4eba\u6c11\u5171\u548c\u56fd,Zh\u014dnghu\u00e1 R\u00e9nm\u00edn G\u00f2ngh\u00e9gu\u00f3","relevance":"0","region":"Asia","subregion":"Eastern Asia","language":"Standard Chinese"},
{"name":"Colombia","nativeName":"Colombia","tld":".co","cca2":"CO","ccn3":"170","cca3":"COL","currency":"COP,COU","callingCode":"57","capital":"Bogot\u00e1","altSpellings":"CO,Republic of Colombia,Rep\u00fablica de Colombia","relevance":"0","region":"Americas","subregion":"South America","language":"Spanish"},
{"name":"Comoros","nativeName":"Komori","tld":".km","cca2":"KM","ccn3":"174","cca3":"COM","currency":"KMF","callingCode":"269","capital":"Moroni","altSpellings":"KM,Union of the Comoros,Union des Comores,Udzima wa Komori,al-Itti\u1e25\u0101d al-Qumur\u012b","relevance":"0","region":"Africa","subregion":"Eastern Africa","language":"Comorian,Arabic,French"},
{"name":"Republic of the Congo","nativeName":"R\u00e9publique du Congo","tld":".cg","cca2":"CG","ccn3":"178","cca3":"COG","currency":"XAF","callingCode":"242","capital":"Brazzaville","altSpellings":"CG,Congo-Brazzaville","relevance":"0","region":"Africa","subregion":"Middle Africa","language":"French"},
{"name":"Democratic Republic of the Congo","nativeName":"R\u00e9publique d\u00e9mocratique du Congo","tld":".cd","cca2":"CD","ccn3":"180","cca3":"COD","currency":"CDF","callingCode":"243","capital":"Kinshasa","altSpellings":"CD,DR Congo,Congo-Kinshasa,DRC","relevance":"0","region":"Africa","subregion":"Middle Africa","language":"French"},
{"name":"Costa Rica","nativeName":"Costa Rica","tld":".cr","cca2":"CR","ccn3":"188","cca3":"CRI","currency":"CRC","callingCode":"506","capital":"San Jos\u00e9","altSpellings":"CR,Republic of Costa Rica,Rep\u00fablica de Costa Rica","relevance":"0","region":"Americas","subregion":"Central America","language":"Spanish"},
{"name":"Ivory Coast","nativeName":"C\u00f4te d'Ivoire","tld":".ci","cca2":"CI","ccn3":"384","cca3":"CIV","currency":"XOF","callingCode":"225","capital":"Yamoussoukro","altSpellings":"CI,Ivory Coast,Republic of C\u00f4te d'Ivoire,R\u00e9publique de C\u00f4te d'Ivoire","relevance":"0","region":"Africa","subregion":"Western Africa","language":"French"},
{"name":"Croatia","nativeName":"Hrvatska","tld":".hr","cca2":"HR","ccn3":"191","cca3":"HRV","currency":"HRK","callingCode":"385","capital":"Zagreb","altSpellings":"HR,Hrvatska,Republic of Croatia,Republika Hrvatska","relevance":"0","region":"Europe","subregion":"Southern Europe","language":"Croatian"},
{"name":"Cuba","nativeName":"Cuba","tld":".cu","cca2":"CU","ccn3":"192","cca3":"CUB","currency":"CUC,CUP","callingCode":"53","capital":"Havana","altSpellings":"CU,Republic of Cuba,Rep\u00fablica de Cuba","relevance":"0","region":"Americas","subregion":"Caribbean","language":"Spanish"},
{"name":"Cura\u00e7ao","nativeName":"Cura\u00e7ao","tld":".cw","cca2":"CW","ccn3":"531","cca3":"CUW","currency":"ANG","callingCode":"5999","capital":"Willemstad","altSpellings":"CW,Curacao,K\u00f2rsou,Country of Cura\u00e7ao,Land Cura\u00e7ao,Pais K\u00f2rsou","relevance":"0","region":"Americas","subregion":"Caribbean","language":"Dutch,Papiamentu,English"},
{"name":"Cyprus","nativeName":"\u039a\u03cd\u03c0\u03c1\u03bf\u03c2","tld":".cy","cca2":"CY","ccn3":"196","cca3":"CYP","currency":"EUR","callingCode":"357","capital":"Nicosia","altSpellings":"CY,K\u00fdpros,K\u0131br\u0131s,Republic of Cyprus,\u039a\u03c5\u03c0\u03c1\u03b9\u03b1\u03ba\u03ae \u0394\u03b7\u03bc\u03bf\u03ba\u03c1\u03b1\u03c4\u03af\u03b1,K\u0131br\u0131s Cumhuriyeti","relevance":"0","region":"Asia","subregion":"Western Asia","language":"Greek,Turkish"},
{"name":"Czech Republic","nativeName":"\u010cesk\u00e1 republika","tld":".cz","cca2":"CZ","ccn3":"203","cca3":"CZE","currency":"CZK","callingCode":"420","capital":"Prague","altSpellings":"CZ,\u010cesk\u00e1 republika,\u010cesko","relevance":"0","region":"Europe","subregion":"Eastern Europe","language":"Czech"},
{"name":"Denmark","nativeName":"Danmark","tld":".dk","cca2":"DK","ccn3":"208","cca3":"DNK","currency":"DKK","callingCode":"45","capital":"Copenhagen","altSpellings":"DK,Danmark,Kingdom of Denmark,Kongeriget Danmark","relevance":"1.5","region":"Europe","subregion":"Northern Europe","language":"Danish"},
{"name":"Djibouti","nativeName":"Djibouti","tld":".dj","cca2":"DJ","ccn3":"262","cca3":"DJI","currency":"DJF","callingCode":"253","capital":"Djibouti","altSpellings":"DJ,Jabuuti,Gabuuti,Republic of Djibouti,R\u00e9publique de Djibouti,Gabuutih Ummuuno,Jamhuuriyadda Jabuuti","relevance":"0","region":"Africa","subregion":"Eastern Africa","language":"French,Arabic"},
{"name":"Dominica","nativeName":"Dominica","tld":".dm","cca2":"DM","ccn3":"212","cca3":"DMA","currency":"XCD","callingCode":"1767","capital":"Roseau","altSpellings":"DM,Dominique,Wai\u2018tu kubuli,Commonwealth of Dominica","relevance":"0.5","region":"Americas","subregion":"Caribbean","language":"English"},
{"name":"Dominican Republic","nativeName":"Rep\u00fablica Dominicana","tld":".do","cca2":"DO","ccn3":"214","cca3":"DOM","currency":"DOP","callingCode":"1809,1829,1849","capital":"Santo Domingo","altSpellings":"DO","relevance":"0","region":"Americas","subregion":"Caribbean","language":"Spanish"},
{"name":"Ecuador","nativeName":"Ecuador","tld":".ec","cca2":"EC","ccn3":"218","cca3":"ECU","currency":"USD","callingCode":"593","capital":"Quito","altSpellings":"EC,Republic of Ecuador,Rep\u00fablica del Ecuador","relevance":"0","region":"Americas","subregion":"South America","language":"Spanish"},
{"name":"Egypt","nativeName":"Mi\u1e63r","tld":".eg","cca2":"EG","ccn3":"818","cca3":"EGY","currency":"EGP","callingCode":"20","capital":"Cairo","altSpellings":"EG,Arab Republic of Egypt","relevance":"1.5","region":"Africa","subregion":"Northern Africa","language":"Egyptian Arabic"},
{"name":"El Salvador","nativeName":"El Salvador","tld":".sv","cca2":"SV","ccn3":"222","cca3":"SLV","currency":"SVC,USD","callingCode":"503","capital":"San Salvador","altSpellings":"SV,Republic of El Salvador,Rep\u00fablica de El Salvador","relevance":"0","region":"Americas","subregion":"Central America","language":"Castilian"},
{"name":"Eritrea","nativeName":"\u12a4\u122d\u1275\u122b","tld":".er","cca2":"ER","ccn3":"232","cca3":"ERI","currency":"ERN","callingCode":"291","capital":"Asmara","altSpellings":"ER,State of Eritrea,\u1203\u1308\u1228 \u12a4\u122d\u1275\u122b,Dawlat Iritriy\u00e1,\u02beErtr\u0101,Iritriy\u0101,","relevance":"0","region":"Africa","subregion":"Eastern Africa","language":"Tigrinya,Arabic,English"},
{"name":"Estonia","nativeName":"Eesti","tld":".ee","cca2":"EE","ccn3":"233","cca3":"EST","currency":"EUR","callingCode":"372","capital":"Tallinn","altSpellings":"EE,Eesti,Republic of Estonia,Eesti Vabariik","relevance":"0","region":"Europe","subregion":"Northern Europe","language":"Estonian"},
{"name":"Ethiopia","nativeName":"\u12a2\u1275\u12ee\u1335\u12eb","tld":".et","cca2":"ET","ccn3":"231","cca3":"ETH","currency":"ETB","callingCode":"251","capital":"Addis Ababa","altSpellings":"ET,\u02be\u012aty\u014d\u1e57\u1e57y\u0101,Federal Democratic Republic of Ethiopia,\u12e8\u12a2\u1275\u12ee\u1335\u12eb \u134c\u12f4\u122b\u120b\u12ca \u12f2\u121e\u12ad\u122b\u1232\u12eb\u12ca \u122a\u1350\u1265\u120a\u12ad","relevance":"0","region":"Africa","subregion":"Eastern Africa","language":"Amharic"},
{"name":"Faroe Islands","nativeName":"F\u00f8royar","tld":".fo","cca2":"FO","ccn3":"234","cca3":"FRO","currency":"DKK","callingCode":"298","capital":"T\u00f3rshavn","altSpellings":"FO,F\u00f8royar,F\u00e6r\u00f8erne","relevance":"0.5","region":"Europe","subregion":"Northern Europe","language":"Faroese,Danish"},
{"name":"Fiji","nativeName":"Fiji","tld":".fj","cca2":"FJ","ccn3":"242","cca3":"FJI","currency":"FJD","callingCode":"679","capital":"Suva","altSpellings":"FJ,Viti,Republic of Fiji,Matanitu ko Viti,Fij\u012b Ga\u1e47ar\u0101jya","relevance":"0","region":"Oceania","subregion":"Melanesia","language":"English,Fijian,Fiji Hindi"},
{"name":"Finland","nativeName":"Suomi","tld":".fi","cca2":"FI","ccn3":"246","cca3":"FIN","currency":"EUR","callingCode":"358","capital":"Helsinki","altSpellings":"FI,Suomi,Republic of Finland,Suomen tasavalta,Republiken Finland","relevance":"0.5","region":"Europe","subregion":"Northern Europe","language":"Finnish,Swedish"},
{"name":"France","nativeName":"France","tld":".fr","cca2":"FR","ccn3":"250","cca3":"FRA","currency":"EUR","callingCode":"33","capital":"Paris","altSpellings":"FR,French Republic,R\u00e9publique fran\u00e7aise","relevance":"2.5","region":"Europe","subregion":"Western Europe","language":"French"},
{"name":"Gabon","nativeName":"Gabon","tld":".ga","cca2":"GA","ccn3":"266","cca3":"GAB","currency":"XAF","callingCode":"241","capital":"Libreville","altSpellings":"GA,Gabonese Republic,R\u00e9publique Gabonaise","relevance":"0","region":"Africa","subregion":"Middle Africa","language":"French"},
{"name":"Gambia","nativeName":"Gambia","tld":".gm","cca2":"GM","ccn3":"270","cca3":"GMB","currency":"GMD","callingCode":"220","capital":"Banjul","altSpellings":"GM,Republic of the Gambia","relevance":"0","region":"Africa","subregion":"Western Africa","language":"English"},
{"name":"Georgia","nativeName":"\u10e1\u10d0\u10e5\u10d0\u10e0\u10d7\u10d5\u10d4\u10da\u10dd","tld":".ge","cca2":"GE","ccn3":"268","cca3":"GEO","currency":"GEL","callingCode":"995","capital":"Tbilisi","altSpellings":"GE,Sakartvelo","relevance":"0","region":"Asia","subregion":"Western Asia","language":"Georgian"},
{"name":"Germany","nativeName":"Deutschland","tld":".de","cca2":"DE","ccn3":"276","cca3":"DEU","currency":"EUR","callingCode":"49","capital":"Berlin","altSpellings":"DE,Federal Republic of Germany,Bundesrepublik Deutschland","relevance":"3","region":"Europe","subregion":"Western Europe","language":"German"},
{"name":"Ghana","nativeName":"Ghana","tld":".gh","cca2":"GH","ccn3":"288","cca3":"GHA","currency":"GHS","callingCode":"233","capital":"Accra","altSpellings":"GH","relevance":"0","region":"Africa","subregion":"Western Africa","language":"English"},
{"name":"Gibraltar","nativeName":"Gibraltar","tld":".gi","cca2":"GI","ccn3":"292","cca3":"GIB","currency":"GIP","callingCode":"350","capital":"Gibraltar","altSpellings":"GI","relevance":"0.5","region":"Europe","subregion":"Southern Europe","language":"English"},
{"name":"Greece","nativeName":"\u0395\u03bb\u03bb\u03ac\u03b4\u03b1","tld":".gr","cca2":"GR","ccn3":"300","cca3":"GRC","currency":"EUR","callingCode":"30","capital":"Athens","altSpellings":"GR,Ell\u00e1da,Hellenic Republic,\u0395\u03bb\u03bb\u03b7\u03bd\u03b9\u03ba\u03ae \u0394\u03b7\u03bc\u03bf\u03ba\u03c1\u03b1\u03c4\u03af\u03b1","relevance":"1.5","region":"Europe","subregion":"Southern Europe","language":"Greek"},
{"name":"Greenland","nativeName":"Kalaallit Nunaat","tld":".gl","cca2":"GL","ccn3":"304","cca3":"GRL","currency":"DKK","callingCode":"299","capital":"Nuuk","altSpellings":"GL,Gr\u00f8nland","relevance":"0.5","region":"Americas","subregion":"Northern America","language":"Greenlandic"},
{"name":"Grenada","nativeName":"Grenada","tld":".gd","cca2":"GD","ccn3":"308","cca3":"GRD","currency":"XCD","callingCode":"1473","capital":"St. George's","altSpellings":"GD","relevance":"0","region":"Americas","subregion":"Caribbean","language":"English"},
{"name":"Guadeloupe","nativeName":"Guadeloupe","tld":".gp","cca2":"GP","ccn3":"312","cca3":"GLP","currency":"EUR","callingCode":"590","capital":"Basse-Terre","altSpellings":"GP,Gwadloup","relevance":"0","region":"Americas","subregion":"Caribbean","language":"French"},
{"name":"Guatemala","nativeName":"Guatemala","tld":".gt","cca2":"GT","ccn3":"320","cca3":"GTM","currency":"GTQ","callingCode":"502","capital":"Guatemala City","altSpellings":"GT","relevance":"0","region":"Americas","subregion":"Central America","language":"Spanish"},
{"name":"Guinea","nativeName":"Guin\u00e9e","tld":".gn","cca2":"GN","ccn3":"324","cca3":"GIN","currency":"GNF","callingCode":"224","capital":"Conakry","altSpellings":"GN,Republic of Guinea,R\u00e9publique de Guin\u00e9e","relevance":"0","region":"Africa","subregion":"Western Africa","language":"French"},
{"name":"Guyana","nativeName":"Guyana","tld":".gy","cca2":"GY","ccn3":"328","cca3":"GUY","currency":"GYD","callingCode":"592","capital":"Georgetown","altSpellings":"GY,Co-operative Republic of Guyana","relevance":"0","region":"Americas","subregion":"South America","language":"English"},
{"name":"Haiti","nativeName":"Ha\u00efti","tld":".ht","cca2":"HT","ccn3":"332","cca3":"HTI","currency":"HTG,USD","callingCode":"509","capital":"Port-au-Prince","altSpellings":"HT,Republic of Haiti,R\u00e9publique d'Ha\u00efti,Repiblik Ayiti","relevance":"0","region":"Americas","subregion":"Caribbean","language":"French,Haitian Creole"},
{"name":"Honduras","nativeName":"Honduras","tld":".hn","cca2":"HN","ccn3":"340","cca3":"HND","currency":"HNL","callingCode":"504","capital":"Tegucigalpa","altSpellings":"HN,Republic of Honduras,Rep\u00fablica de Honduras","relevance":"0","region":"Americas","subregion":"Central America","language":"Spanish"},
{"name":"Hong Kong","nativeName":"Hong Kong","tld":".hk","cca2":"HK","ccn3":"344","cca3":"HKG","currency":"HKD","callingCode":"852","capital":"City of Victoria","altSpellings":"HK,\u9999\u6e2f","relevance":"0","region":"Asia","subregion":"Eastern Asia","language":"English,Chinese"},
{"name":"Hungary","nativeName":"Magyarorsz\u00e1g","tld":".hu","cca2":"HU","ccn3":"348","cca3":"HUN","currency":"HUF","callingCode":"36","capital":"Budapest","altSpellings":"HU","relevance":"0","region":"Europe","subregion":"Eastern Europe","language":"Hungarian"},
{"name":"Iceland","nativeName":"\u00cdsland","tld":".is","cca2":"IS","ccn3":"352","cca3":"ISL","currency":"ISK","callingCode":"354","capital":"Reykjavik","altSpellings":"IS,Island,Republic of Iceland,L\u00fd\u00f0veldi\u00f0 \u00cdsland","relevance":"0","region":"Europe","subregion":"Northern Europe","language":"Icelandic"},
{"name":"India","nativeName":"\u092d\u093e\u0930\u0924","tld":".in","cca2":"IN","ccn3":"356","cca3":"IND","currency":"INR","callingCode":"91","capital":"New Delhi","altSpellings":"IN,Bh\u0101rat,Republic of India,Bharat Ganrajya","relevance":"3","region":"Asia","subregion":"Southern Asia","language":"Hindi,English"},
{"name":"Indonesia","nativeName":"Indonesia","tld":".id","cca2":"ID","ccn3":"360","cca3":"IDN","currency":"IDR","callingCode":"62","capital":"Jakarta","altSpellings":"ID,Republic of Indonesia,Republik Indonesia","relevance":"2","region":"Asia","subregion":"South-Eastern Asia","language":"Indonesian"},
{"name":"Iran","nativeName":"Ir\u0101n","tld":".ir","cca2":"IR","ccn3":"364","cca3":"IRN","currency":"IRR","callingCode":"98","capital":"Tehran","altSpellings":"IR,Islamic Republic of Iran,Jomhuri-ye Esl\u0101mi-ye Ir\u0101n","relevance":"0","region":"Asia","subregion":"Southern Asia","language":"Persian"},
{"name":"Iraq","nativeName":"Ir\u0101q","tld":".iq","cca2":"IQ","ccn3":"368","cca3":"IRQ","currency":"IQD","callingCode":"964","capital":"Baghdad","altSpellings":"IQ,Republic of Iraq,Jumh\u016briyyat al-\u2018Ir\u0101q","relevance":"0","region":"Asia","subregion":"Western Asia","language":"Arabic,Kurdish"},
{"name":"Ireland","nativeName":"\u00c9ire","tld":".ie","cca2":"IE","ccn3":"372","cca3":"IRL","currency":"EUR","callingCode":"353","capital":"Dublin","altSpellings":"IE,\u00c9ire,Republic of Ireland,Poblacht na h\u00c9ireann","relevance":"1.2","region":"Europe","subregion":"Northern Europe","language":"Irish,English"},
{"name":"Isle of Man","nativeName":"Isle of Man","tld":".im","cca2":"IM","ccn3":"833","cca3":"IMN","currency":"GBP","callingCode":"44","capital":"Douglas","altSpellings":"IM,Ellan Vannin,Mann,Mannin","relevance":"0.5","region":"Europe","subregion":"Northern Europe","language":"English,Manx"},
{"name":"Israel","nativeName":"Yisr\u0101'el","tld":".il","cca2":"IL","ccn3":"376","cca3":"ISR","currency":"ILS","callingCode":"972","capital":"Jerusalem","altSpellings":"IL,State of Israel,Med\u012bnat Yisr\u0101'el","relevance":"0","region":"Asia","subregion":"Western Asia","language":"Hebrew,Arabic"},
{"name":"Italy","nativeName":"Italia","tld":".it","cca2":"IT","ccn3":"380","cca3":"ITA","currency":"EUR","callingCode":"39","capital":"Rome","altSpellings":"IT,Italian Republic,Repubblica italiana","relevance":"2","region":"Europe","subregion":"Southern Europe","language":"Italian"},
{"name":"Jamaica","nativeName":"Jamaica","tld":".jm","cca2":"JM","ccn3":"388","cca3":"JAM","currency":"JMD","callingCode":"1876","capital":"Kingston","altSpellings":"JM","relevance":"0","region":"Americas","subregion":"Caribbean","language":"Jamaican English"},
{"name":"Japan","nativeName":"\u65e5\u672c","tld":".jp","cca2":"JP","ccn3":"392","cca3":"JPN","currency":"JPY","callingCode":"81","capital":"Tokyo","altSpellings":"JP,Nippon,Nihon","relevance":"2.5","region":"Asia","subregion":"Eastern Asia","language":"Japanese"},
{"name":"Jersey","nativeName":"Jersey","tld":".je","cca2":"JE","ccn3":"832","cca3":"JEY","currency":"GBP","callingCode":"44","capital":"Saint Helier","altSpellings":"JE,Bailiwick of Jersey,Bailliage de Jersey,Bailliage d\u00e9 J\u00e8rri","relevance":"0.5","region":"Europe","subregion":"Northern Europe","language":"English,French"},
{"name":"Jordan","nativeName":"al-Urdun","tld":".jo","cca2":"JO","ccn3":"400","cca3":"JOR","currency":"JOD","callingCode":"962","capital":"Amman","altSpellings":"JO,Hashemite Kingdom of Jordan,al-Mamlakah al-Urdun\u012byah al-H\u0101shim\u012byah","relevance":"0","region":"Asia","subregion":"Western Asia","language":"Arabic"},
{"name":"Kazakhstan","nativeName":"\u049a\u0430\u0437\u0430\u049b\u0441\u0442\u0430\u043d","tld":".kz,.\u049b\u0430\u0437","cca2":"KZ","ccn3":"398","cca3":"KAZ","currency":"KZT","callingCode":"76,77","capital":"Astana","altSpellings":"KZ,Qazaqstan,\u041a\u0430\u0437\u0430\u0445\u0441\u0442\u0430\u043d,Republic of Kazakhstan,\u049a\u0430\u0437\u0430\u049b\u0441\u0442\u0430\u043d \u0420\u0435\u0441\u043f\u0443\u0431\u043b\u0438\u043a\u0430\u0441\u044b,Qazaqstan Respubl\u00efkas\u0131,\u0420\u0435\u0441\u043f\u0443\u0431\u043b\u0438\u043a\u0430 \u041a\u0430\u0437\u0430\u0445\u0441\u0442\u0430\u043d,Respublika Kazakhstan","relevance":"0","region":"Asia","subregion":"Central Asia","language":"Kazakh,Russian"},
{"name":"Kenya","nativeName":"Kenya","tld":".ke","cca2":"KE","ccn3":"404","cca3":"KEN","currency":"KES","callingCode":"254","capital":"Nairobi","altSpellings":"KE,Republic of Kenya,Jamhuri ya Kenya","relevance":"0","region":"Africa","subregion":"Eastern Africa","language":"Swahili,English"},
{"name":"Kuwait","nativeName":"al-Kuwayt","tld":".kw","cca2":"KW","ccn3":"414","cca3":"KWT","currency":"KWD","callingCode":"965","capital":"Kuwait City","altSpellings":"KW,State of Kuwait,Dawlat al-Kuwait","relevance":"0","region":"Asia","subregion":"Western Asia","language":"Arabic"},
{"name":"Kyrgyzstan","nativeName":"\u041a\u044b\u0440\u0433\u044b\u0437\u0441\u0442\u0430\u043d","tld":".kg","cca2":"KG","ccn3":"417","cca3":"KGZ","currency":"KGS","callingCode":"996","capital":"Bishkek","altSpellings":"KG,\u041a\u0438\u0440\u0433\u0438\u0437\u0438\u044f,Kyrgyz Republic,\u041a\u044b\u0440\u0433\u044b\u0437 \u0420\u0435\u0441\u043f\u0443\u0431\u043b\u0438\u043a\u0430\u0441\u044b,Kyrgyz Respublikasy","relevance":"0","region":"Asia","subregion":"Central Asia","language":"Kyrgyz,Russian"},
{"name":"Laos","nativeName":"\u0eaa\u0e9b\u0e9b\u0ea5\u0eb2\u0ea7","tld":".la","cca2":"LA","ccn3":"418","cca3":"LAO","currency":"LAK","callingCode":"856","capital":"Vientiane","altSpellings":"LA,Lao,Lao People's Democratic Republic,Sathalanalat Paxathipatai Paxaxon Lao","relevance":"0","region":"Asia","subregion":"South-Eastern Asia","language":"Lao"},
{"name":"Latvia","nativeName":"Latvija","tld":".lv","cca2":"LV","ccn3":"428","cca3":"LVA","currency":"LVL","callingCode":"371","capital":"Riga","altSpellings":"LV,Republic of Latvia,Latvijas Republika","relevance":"0","region":"Europe","subregion":"Northern Europe","language":"Latvian"},
{"name":"Lebanon","nativeName":"Libn\u0101n","tld":".lb","cca2":"LB","ccn3":"422","cca3":"LBN","currency":"LBP","callingCode":"961","capital":"Beirut","altSpellings":"LB,Lebanese Republic,Al-Jumh\u016br\u012byah Al-Libn\u0101n\u012byah","relevance":"0","region":"Asia","subregion":"Western Asia","language":"Arabic,French"},
{"name":"Lesotho","nativeName":"Lesotho","tld":".ls","cca2":"LS","ccn3":"426","cca3":"LSO","currency":"LSL,ZAR","callingCode":"266","capital":"Maseru","altSpellings":"LS,Kingdom of Lesotho,Muso oa Lesotho","relevance":"0","region":"Africa","subregion":"Southern Africa","language":"Sesotho,English"},
{"name":"Liberia","nativeName":"Liberia","tld":".lr","cca2":"LR","ccn3":"430","cca3":"LBR","currency":"LRD","callingCode":"231","capital":"Monrovia","altSpellings":"LR,Republic of Liberia","relevance":"0","region":"Africa","subregion":"Western Africa","language":"English"},
{"name":"Libya","nativeName":"L\u012bby\u0101","tld":".ly","cca2":"LY","ccn3":"434","cca3":"LBY","currency":"LYD","callingCode":"218","capital":"Tripoli","altSpellings":"LY,State of Libya,Dawlat Libya","relevance":"0","region":"Africa","subregion":"Northern Africa","language":"Arabic"},
{"name":"Liechtenstein","nativeName":"Liechtenstein","tld":".li","cca2":"LI","ccn3":"438","cca3":"LIE","currency":"CHF","callingCode":"423","capital":"Vaduz","altSpellings":"LI,Principality of Liechtenstein,F\u00fcrstentum Liechtenstein","relevance":"0","region":"Europe","subregion":"Western Europe","language":"German"},
{"name":"Lithuania","nativeName":"Lietuva","tld":".lt","cca2":"LT","ccn3":"440","cca3":"LTU","currency":"LTL","callingCode":"370","capital":"Vilnius","altSpellings":"LT,Republic of Lithuania,Lietuvos Respublika","relevance":"0","region":"Europe","subregion":"Northern Europe","language":"Lithuanian"},
{"name":"Luxembourg","nativeName":"Luxembourg","tld":".lu","cca2":"LU","ccn3":"442","cca3":"LUX","currency":"EUR","callingCode":"352","capital":"Luxembourg","altSpellings":"LU,Grand Duchy of Luxembourg,Grand-Duch\u00e9 de Luxembourg,Gro\u00dfherzogtum Luxemburg,Groussherzogtum L\u00ebtzebuerg","relevance":"0","region":"Europe","subregion":"Western Europe","language":"French,German,Luxembourgish"},
{"name":"Macao","nativeName":"\u6fb3\u9580","tld":".mo","cca2":"MO","ccn3":"446","cca3":"MAC","currency":"MOP","callingCode":"853","capital":"","altSpellings":"MO,\u6fb3\u95e8,Macao Special Administrative Region of the People's Republic of China,\u4e2d\u83ef\u4eba\u6c11\u5171\u548c\u570b\u6fb3\u9580\u7279\u5225\u884c\u653f\u5340,Regi\u00e3o Administrativa Especial de Macau da Rep\u00fablica Popular da China","relevance":"0","region":"Asia","subregion":"Eastern Asia","language":"Traditional Chinese,Portuguese"},
{"name":"Macedonia","nativeName":"\u041c\u0430\u043a\u0435\u0434\u043e\u043d\u0438\u0458\u0430","tld":".mk","cca2":"MK","ccn3":"807","cca3":"MKD","currency":"MKD","callingCode":"389","capital":"Skopje","altSpellings":"MK,Republic of Macedonia,\u0420\u0435\u043f\u0443\u0431\u043b\u0438\u043a\u0430 \u041c\u0430\u043a\u0435\u0434\u043e\u043d\u0438\u0458\u0430","relevance":"0","region":"Europe","subregion":"Southern Europe","language":"Macedonian"},
{"name":"Madagascar","nativeName":"Madagasikara","tld":".mg","cca2":"MG","ccn3":"450","cca3":"MDG","currency":"MGA","callingCode":"261","capital":"Antananarivo","altSpellings":"MG,Republic of Madagascar,Repoblikan'i Madagasikara,R\u00e9publique de Madagascar","relevance":"0","region":"Africa","subregion":"Eastern Africa","language":"Malagasy,French"},
{"name":"Malawi","nativeName":"Malawi","tld":".mw","cca2":"MW","ccn3":"454","cca3":"MWI","currency":"MWK","callingCode":"265","capital":"Lilongwe","altSpellings":"MW,Republic of Malawi","relevance":"0","region":"Africa","subregion":"Eastern Africa","language":"Chichewa,English"},
{"name":"Malaysia","nativeName":"Malaysia","tld":".my","cca2":"MY","ccn3":"458","cca3":"MYS","currency":"MYR","callingCode":"60","capital":"Kuala Lumpur","altSpellings":"MY","relevance":"0","region":"Asia","subregion":"South-Eastern Asia","language":"Malaysian"},
{"name":"Maldives","nativeName":"Maldives","tld":".mv","cca2":"MV","ccn3":"462","cca3":"MDV","currency":"MVR","callingCode":"960","capital":"Mal\u00e9","altSpellings":"MV,Maldive Islands,Republic of the Maldives,Dhivehi Raajjeyge Jumhooriyya","relevance":"0","region":"Asia","subregion":"Southern Asia","language":"Maldivian"},
{"name":"Mali","nativeName":"Mali","tld":".ml","cca2":"ML","ccn3":"466","cca3":"MLI","currency":"XOF","callingCode":"223","capital":"Bamako","altSpellings":"ML,Republic of Mali,R\u00e9publique du Mali","relevance":"0","region":"Africa","subregion":"Western Africa","language":"French"},
{"name":"Malta","nativeName":"Malta","tld":".mt","cca2":"MT","ccn3":"470","cca3":"MLT","currency":"EUR","callingCode":"356","capital":"Valletta","altSpellings":"MT,Republic of Malta,Repubblika ta' Malta","relevance":"0","region":"Europe","subregion":"Southern Europe","language":"Maltese,English"},
{"name":"Mauritania","nativeName":"M\u016br\u012bt\u0101ny\u0101","tld":".mr","cca2":"MR","ccn3":"478","cca3":"MRT","currency":"MRO","callingCode":"222","capital":"Nouakchott","altSpellings":"MR,Islamic Republic of Mauritania,al-Jumh\u016briyyah al-\u02beIsl\u0101miyyah al-M\u016br\u012bt\u0101niyyah","relevance":"0","region":"Africa","subregion":"Western Africa","language":"Arabic"},
{"name":"Mauritius","nativeName":"Maurice","tld":".mu","cca2":"MU","ccn3":"480","cca3":"MUS","currency":"MUR","callingCode":"230","capital":"Port Louis","altSpellings":"MU,Republic of Mauritius,R\u00e9publique de Maurice","relevance":"0","region":"Africa","subregion":"Eastern Africa","language":"French"},
{"name":"Mexico","nativeName":"M\u00e9xico","tld":".mx","cca2":"MX","ccn3":"484","cca3":"MEX","currency":"MXN,MXV","callingCode":"52","capital":"Mexico City","altSpellings":"MX,Mexicanos,United Mexican States,Estados Unidos Mexicanos","relevance":"1.5","region":"Americas","subregion":"Central America","language":"Spanish"},
{"name":"Micronesia","nativeName":"Micronesia","tld":".fm","cca2":"FM","ccn3":"583","cca3":"FSM","currency":"USD","callingCode":"691","capital":"Palikir","altSpellings":"FM,Federated States of Micronesia","relevance":"0","region":"Oceania","subregion":"Micronesia","language":"English"},
{"name":"Moldova","nativeName":"Moldova","tld":".md","cca2":"MD","ccn3":"498","cca3":"MDA","currency":"MDL","callingCode":"373","capital":"Chi\u0219in\u0103u","altSpellings":"MD,Republic of Moldova,Republica Moldova","relevance":"0","region":"Europe","subregion":"Eastern Europe","language":"Moldovan"},
{"name":"Monaco","nativeName":"Monaco","tld":".mc","cca2":"MC","ccn3":"492","cca3":"MCO","currency":"EUR","callingCode":"377","capital":"Monaco","altSpellings":"MC,Principality of Monaco,Principaut\u00e9 de Monaco","relevance":"0","region":"Europe","subregion":"Western Europe","language":"French"},
{"name":"Mongolia","nativeName":"\u041c\u043e\u043d\u0433\u043e\u043b \u0443\u043b\u0441","tld":".mn","cca2":"MN","ccn3":"496","cca3":"MNG","currency":"MNT","callingCode":"976","capital":"Ulan Bator","altSpellings":"MN","relevance":"0","region":"Asia","subregion":"Eastern Asia","language":"Mongolian"},
{"name":"Montenegro","nativeName":"\u0426\u0440\u043d\u0430 \u0413\u043e\u0440\u0430","tld":".me","cca2":"ME","ccn3":"499","cca3":"MNE","currency":"EUR","callingCode":"382","capital":"Podgorica","altSpellings":"ME,Crna Gora","relevance":"0","region":"Europe","subregion":"Southern Europe","language":"Montenegrin"},
{"name":"Montserrat","nativeName":"Montserrat","tld":".ms","cca2":"MS","ccn3":"500","cca3":"MSR","currency":"XCD","callingCode":"1664","capital":"Plymouth","altSpellings":"MS","relevance":"0.5","region":"Americas","subregion":"Caribbean","language":"English"},
{"name":"Morocco","nativeName":"al-Ma\u0121rib","tld":".ma","cca2":"MA","ccn3":"504","cca3":"MAR","currency":"MAD","callingCode":"212","capital":"Rabat","altSpellings":"MA,Kingdom of Morocco,Al-Mamlakah al-Ma\u0121ribiyah","relevance":"0","region":"Africa","subregion":"Northern Africa","language":"Arabic,Tamazight"},
{"name":"Mozambique","nativeName":"Mo\u00e7ambique","tld":".mz","cca2":"MZ","ccn3":"508","cca3":"MOZ","currency":"MZN","callingCode":"258","capital":"Maputo","altSpellings":"MZ,Republic of Mozambique,Rep\u00fablica de Mo\u00e7ambique","relevance":"0","region":"Africa","subregion":"Eastern Africa","language":"Portuguese"},
{"name":"Myanmar","nativeName":"Myanma","tld":".mm","cca2":"MM","ccn3":"104","cca3":"MMR","currency":"MMK","callingCode":"95","capital":"Naypyidaw","altSpellings":"MM,Burma,Republic of the Union of Myanmar,Pyidaunzu Thanm\u0103da My\u0103ma Nainngandaw","relevance":"0","region":"Asia","subregion":"South-Eastern Asia","language":"Burmese"},
{"name":"Namibia","nativeName":"Namibia","tld":".na","cca2":"NA","ccn3":"516","cca3":"NAM","currency":"NAD,ZAR","callingCode":"264","capital":"Windhoek","altSpellings":"NA,Namibi\u00eb,Republic of Namibia","relevance":"0","region":"Africa","subregion":"Southern Africa","language":"English"},
{"name":"Nepal","nativeName":"\u0928\u092a\u0932","tld":".np","cca2":"NP","ccn3":"524","cca3":"NPL","currency":"NPR","callingCode":"977","capital":"Kathmandu","altSpellings":"NP,Federal Democratic Republic of Nepal,Lokt\u0101ntrik Ganatantra Nep\u0101l","relevance":"0","region":"Asia","subregion":"Southern Asia","language":"Nepali"},
{"name":"Netherlands","nativeName":"Nederland","tld":".nl","cca2":"NL","ccn3":"528","cca3":"NLD","currency":"EUR","callingCode":"31","capital":"Amsterdam","altSpellings":"NL,Holland,Nederland","relevance":"1.5","region":"Europe","subregion":"Western Europe","language":"Dutch"},
{"name":"New Caledonia","nativeName":"Nouvelle-Cal\u00e9donie","tld":".nc","cca2":"NC","ccn3":"540","cca3":"NCL","currency":"XPF","callingCode":"687","capital":"Noum\u00e9a","altSpellings":"NC","relevance":"0.5","region":"Oceania","subregion":"Melanesia","language":"French"},
{"name":"New Zealand","nativeName":"New Zealand","tld":".nz","cca2":"NZ","ccn3":"554","cca3":"NZL","currency":"NZD","callingCode":"64","capital":"Wellington","altSpellings":"NZ,Aotearoa","relevance":"0","region":"Oceania","subregion":"Australia,New Zealand","language":"English,M\u0101ori,New Zealand Sign Language"},
{"name":"Nicaragua","nativeName":"Nicaragua","tld":".ni","cca2":"NI","ccn3":"558","cca3":"NIC","currency":"NIO","callingCode":"505","capital":"Managua","altSpellings":"NI,Republic of Nicaragua,Rep\u00fablica de Nicaragua","relevance":"0","region":"Americas","subregion":"Central America","language":"Spanish"},
{"name":"Niger","nativeName":"Niger","tld":".ne","cca2":"NE","ccn3":"562","cca3":"NER","currency":"XOF","callingCode":"227","capital":"Niamey","altSpellings":"NE,Nijar,Republic of Niger,R\u00e9publique du Niger","relevance":"0","region":"Africa","subregion":"Western Africa","language":"French"},
{"name":"Nigeria","nativeName":"Nigeria","tld":".ng","cca2":"NG","ccn3":"566","cca3":"NGA","currency":"NGN","callingCode":"234","capital":"Abuja","altSpellings":"NG,Nijeriya,Na\u00edj\u00edr\u00ed\u00e0,Federal Republic of Nigeria","relevance":"1.5","region":"Africa","subregion":"Western Africa","language":"English"},
{"name":"Norfolk Island","nativeName":"Norfolk Island","tld":".nf","cca2":"NF","ccn3":"574","cca3":"NFK","currency":"AUD","callingCode":"672","capital":"Kingston","altSpellings":"NF,Territory of Norfolk Island,Teratri of Norf'k Ailen","relevance":"0.5","region":"Oceania","subregion":"Australia,New Zealand","language":"English,Norfuk"},
{"name":"North Korea","nativeName":"\ubd81\ud55c","tld":".kp","cca2":"KP","ccn3":"408","cca3":"PRK","currency":"KPW","callingCode":"850","capital":"Pyongyang","altSpellings":"KP,Democratic People's Republic of Korea,\uc870\uc120\ubbfc\uc8fc\uc8fc\uc758\uc778\ubbfc\uacf5\ud654\uad6d,Chos\u014fn Minjuju\u016di Inmin Konghwaguk","relevance":"0","region":"Asia","subregion":"Eastern Asia","language":"Korean"},
{"name":"Norway","nativeName":"Norge","tld":".no","cca2":"NO","ccn3":"578","cca3":"NOR","currency":"NOK","callingCode":"47","capital":"Oslo","altSpellings":"NO,Norge,Noreg,Kingdom of Norway,Kongeriket Norge,Kongeriket Noreg","relevance":"1.5","region":"Europe","subregion":"Northern Europe","language":"Norwegian"},
{"name":"Oman","nativeName":"\u02bbUm\u0101n","tld":".om","cca2":"OM","ccn3":"512","cca3":"OMN","currency":"OMR","callingCode":"968","capital":"Muscat","altSpellings":"OM,Sultanate of Oman,Sal\u1e6danat \u02bbUm\u0101n","relevance":"0","region":"Asia","subregion":"Western Asia","language":"Arabic"},
{"name":"Pakistan","nativeName":"Pakistan","tld":".pk","cca2":"PK","ccn3":"586","cca3":"PAK","currency":"PKR","callingCode":"92","capital":"Islamabad","altSpellings":"PK,P\u0101kist\u0101n,Islamic Republic of Pakistan,Isl\u0101m\u012b Jumh\u016briya'eh P\u0101kist\u0101n","relevance":"2","region":"Asia","subregion":"Southern Asia","language":"English,Urdu"},
{"name":"Palestine","nativeName":"Filas\u1e6din","tld":".ps","cca2":"PS","ccn3":"275","cca3":"PSE","currency":"ILS","callingCode":"970","capital":"Ramallah","altSpellings":"PS,State of Palestine,Dawlat Filas\u1e6din","relevance":"0","region":"Asia","subregion":"Western Asia","language":"Arabic"},
{"name":"Panama","nativeName":"Panam\u00e1","tld":".pa","cca2":"PA","ccn3":"591","cca3":"PAN","currency":"PAB,USD","callingCode":"507","capital":"Panama City","altSpellings":"PA,Republic of Panama,Rep\u00fablica de Panam\u00e1","relevance":"0","region":"Americas","subregion":"Central America","language":"Spanish"},
{"name":"Papua New Guinea","nativeName":"Papua Niugini","tld":".pg","cca2":"PG","ccn3":"598","cca3":"PNG","currency":"PGK","callingCode":"675","capital":"Port Moresby","altSpellings":"PG,Independent State of Papua New Guinea,Independen Stet bilong Papua Niugini","relevance":"0","region":"Oceania","subregion":"Melanesia","language":"Hiri Motu,Tok Pisin,English"},
{"name":"Paraguay","nativeName":"Paraguay","tld":".py","cca2":"PY","ccn3":"600","cca3":"PRY","currency":"PYG","callingCode":"595","capital":"Asunci\u00f3n","altSpellings":"PY,Republic of Paraguay,Rep\u00fablica del Paraguay,Tet\u00e3 Paragu\u00e1i","relevance":"0","region":"Americas","subregion":"South America","language":"Spanish,Guaran\u00ed"},
{"name":"Peru","nativeName":"Per\u00fa","tld":".pe","cca2":"PE","ccn3":"604","cca3":"PER","currency":"PEN","callingCode":"51","capital":"Lima","altSpellings":"PE,Republic of Peru, Rep\u00fablica del Per\u00fa","relevance":"0","region":"Americas","subregion":"South America","language":"Spanish,Quechua,Aymara"},
{"name":"Philippines","nativeName":"Pilipinas","tld":".ph","cca2":"PH","ccn3":"608","cca3":"PHL","currency":"PHP","callingCode":"63","capital":"Manila","altSpellings":"PH,Republic of the Philippines,Rep\u00fablika ng Pilipinas","relevance":"1.5","region":"Asia","subregion":"South-Eastern Asia","language":"Filipino,English"},
{"name":"Poland","nativeName":"Polska","tld":".pl","cca2":"PL","ccn3":"616","cca3":"POL","currency":"PLN","callingCode":"48","capital":"Warsaw","altSpellings":"PL,Republic of Poland,Rzeczpospolita Polska","relevance":"1.25","region":"Europe","subregion":"Eastern Europe","language":"Polish"},
{"name":"Portugal","nativeName":"Portugal","tld":".pt","cca2":"PT","ccn3":"620","cca3":"PRT","currency":"EUR","callingCode":"351","capital":"Lisbon","altSpellings":"PT,Portuguesa,Portuguese Republic,Rep\u00fablica Portuguesa","relevance":"1.5","region":"Europe","subregion":"Southern Europe","language":"Portuguese"},
{"name":"Puerto Rico","nativeName":"Puerto Rico","tld":".pr","cca2":"PR","ccn3":"630","cca3":"PRI","currency":"USD","callingCode":"1787,1939","capital":"San Juan","altSpellings":"PR,Commonwealth of Puerto Rico,Estado Libre Asociado de Puerto Rico","relevance":"0","region":"Americas","subregion":"Caribbean","language":"Spanish,English"},
{"name":"Qatar","nativeName":"Qa\u1e6dar","tld":".qa","cca2":"QA","ccn3":"634","cca3":"QAT","currency":"QAR","callingCode":"974","capital":"Doha","altSpellings":"QA,State of Qatar,Dawlat Qa\u1e6dar","relevance":"0","region":"Asia","subregion":"Western Asia","language":"Arabic"},
{"name":"Romania","nativeName":"Rom\u00e2nia","tld":".ro","cca2":"RO","ccn3":"642","cca3":"ROU","currency":"RON","callingCode":"40","capital":"Bucharest","altSpellings":"RO,Rumania,Roumania,Rom\u00e2nia","relevance":"0","region":"Europe","subregion":"Eastern Europe","language":"Romanian"},
{"name":"Russia","nativeName":"\u0420\u043e\u0441\u0441\u0438\u044f","tld":".ru","cca2":"RU","ccn3":"643","cca3":"RUS","currency":"RUB","callingCode":"7","capital":"Moscow","altSpellings":"RU,Rossiya,Russian Federation,\u0420\u043e\u0441\u0441\u0438\u0439\u0441\u043a\u0430\u044f \u0424\u0435\u0434\u0435\u0440\u0430\u0446\u0438\u044f,Rossiyskaya Federatsiya","relevance":"2.5","region":"Europe","subregion":"Eastern Europe","language":"Russian"},
{"name":"Rwanda","nativeName":"Rwanda","tld":".rw","cca2":"RW","ccn3":"646","cca3":"RWA","currency":"RWF","callingCode":"250","capital":"Kigali","altSpellings":"RW,Republic of Rwanda,Repubulika y'u Rwanda,R\u00e9publique du Rwanda","relevance":"0","region":"Africa","subregion":"Eastern Africa","language":"Kinyarwanda,French,English"},
{"name":"Samoa","nativeName":"Samoa","tld":".ws","cca2":"WS","ccn3":"882","cca3":"WSM","currency":"WST","callingCode":"685","capital":"Apia","altSpellings":"WS,Independent State of Samoa,Malo Sa\u02bboloto Tuto\u02bbatasi o S\u0101moa","relevance":"0","region":"Oceania","subregion":"Polynesia","language":"Samoan,English"},
{"name":"San Marino","nativeName":"San Marino","tld":".sm","cca2":"SM","ccn3":"674","cca3":"SMR","currency":"EUR","callingCode":"378","capital":"City of San Marino","altSpellings":"SM,Republic of San Marino,Repubblica di San Marino","relevance":"0","region":"Europe","subregion":"Southern Europe","language":"Italian"},
{"name":"Saudi Arabia","nativeName":"as-Su\u2018\u016bdiyyah","tld":".sa","cca2":"SA","ccn3":"682","cca3":"SAU","currency":"SAR","callingCode":"966","capital":"Riyadh","altSpellings":"SA,Kingdom of Saudi Arabia,Al-Mamlakah al-\u2018Arabiyyah as-Su\u2018\u016bdiyyah","relevance":"0","region":"Asia","subregion":"Western Asia","language":"Arabic"},
{"name":"Senegal","nativeName":"S\u00e9n\u00e9gal","tld":".sn","cca2":"SN","ccn3":"686","cca3":"SEN","currency":"XOF","callingCode":"221","capital":"Dakar","altSpellings":"SN,Republic of Senegal,R\u00e9publique du S\u00e9n\u00e9gal","relevance":"0","region":"Africa","subregion":"Western Africa","language":"French"},
{"name":"Serbia","nativeName":"\u0421\u0440\u0431\u0438\u0458\u0430","tld":".rs","cca2":"RS","ccn3":"688","cca3":"SRB","currency":"RSD","callingCode":"381","capital":"Belgrade","altSpellings":"RS,Srbija,Republic of Serbia,\u0420\u0435\u043f\u0443\u0431\u043b\u0438\u043a\u0430 \u0421\u0440\u0431\u0438\u0458\u0430,Republika Srbija","relevance":"0","region":"Europe","subregion":"Southern Europe","language":"Serbian"},
{"name":"Seychelles","nativeName":"Seychelles","tld":".sc","cca2":"SC","ccn3":"690","cca3":"SYC","currency":"SCR","callingCode":"248","capital":"Victoria","altSpellings":"SC,Republic of Seychelles,Repiblik Sesel,R\u00e9publique des Seychelles","relevance":"0.5","region":"Africa","subregion":"Eastern Africa","language":"French,English,Seychellois Creole"},
{"name":"Sierra Leone","nativeName":"Sierra Leone","tld":".sl","cca2":"SL","ccn3":"694","cca3":"SLE","currency":"SLL","callingCode":"232","capital":"Freetown","altSpellings":"SL,Republic of Sierra Leone","relevance":"0","region":"Africa","subregion":"Western Africa","language":"English"},
{"name":"Singapore","nativeName":"Singapore","tld":".sg","cca2":"SG","ccn3":"702","cca3":"SGP","currency":"SGD","callingCode":"65","capital":"Singapore","altSpellings":"SG,Singapura,Republik Singapura,\u65b0\u52a0\u5761\u5171\u548c\u56fd","relevance":"0","region":"Asia","subregion":"South-Eastern Asia","language":"English,Malay,Mandarin,Tamil"},
{"name":"Slovakia","nativeName":"Slovensko","tld":".sk","cca2":"SK","ccn3":"703","cca3":"SVK","currency":"EUR","callingCode":"421","capital":"Bratislava","altSpellings":"SK,Slovak Republic,Slovensk\u00e1 republika","relevance":"0","region":"Europe","subregion":"Eastern Europe","language":"Slovak"},
{"name":"Slovenia","nativeName":"Slovenija","tld":".si","cca2":"SI","ccn3":"705","cca3":"SVN","currency":"EUR","callingCode":"386","capital":"Ljubljana","altSpellings":"SI,Republic of Slovenia,Republika Slovenija","relevance":"0","region":"Europe","subregion":"Southern Europe","language":"Slovene"},
{"name":"Somalia","nativeName":"Soomaaliya","tld":".so","cca2":"SO","ccn3":"706","cca3":"SOM","currency":"SOS","callingCode":"252","capital":"Mogadishu","altSpellings":"SO,a\u1e63-\u1e62\u016bm\u0101l,Federal Republic of Somalia,Jamhuuriyadda Federaalka Soomaaliya,Jumh\u016briyyat a\u1e63-\u1e62\u016bm\u0101l al-Fider\u0101liyya","relevance":"0","region":"Africa","subregion":"Eastern Africa","language":"Somali,Arabic"},
{"name":"South Africa","nativeName":"South Africa","tld":".za","cca2":"ZA","ccn3":"710","cca3":"ZAF","currency":"ZAR","callingCode":"27","capital":"Cape Town","altSpellings":"ZA,RSA,Suid-Afrika,Republic of South Africa","relevance":"0","region":"Africa","subregion":"Southern Africa","language":"Afrikaans,English,Southern Ndebele,Northern Sotho,Southern Sotho,Swazi,Tsonga,Tswana,Venda,Xhosa,Zulu"},
{"name":"South Korea","nativeName":"\ub300\ud55c\ubbfc\uad6d","tld":".kr","cca2":"KR","ccn3":"410","cca3":"KOR","currency":"KRW","callingCode":"82","capital":"Seoul","altSpellings":"KR,Republic of Korea","relevance":"1.5","region":"Asia","subregion":"Eastern Asia","language":"Korean"},
{"name":"Spain","nativeName":"Espa\u00f1a","tld":".es","cca2":"ES","ccn3":"724","cca3":"ESP","currency":"EUR","callingCode":"34","capital":"Madrid","altSpellings":"ES,Kingdom of Spain,Reino de Espa\u00f1a","relevance":"2","region":"Europe","subregion":"Southern Europe","language":"Spanish"},
{"name":"Sri Lanka","nativeName":"\u015br\u012b la\u1e43k\u0101va","tld":".lk","cca2":"LK","ccn3":"144","cca3":"LKA","currency":"LKR","callingCode":"94","capital":"Colombo","altSpellings":"LK,ila\u1e45kai,Democratic Socialist Republic of Sri Lanka","relevance":"0","region":"Asia","subregion":"Southern Asia","language":"Sinhala,Tamil"},
{"name":"Sudan","nativeName":"as-S\u016bd\u0101n","tld":".sd","cca2":"SD","ccn3":"729","cca3":"SDN","currency":"SDG","callingCode":"249","capital":"Khartoum","altSpellings":"SD,Republic of the Sudan,Jumh\u016br\u012byat as-S\u016bd\u0101n","relevance":"0","region":"Africa","subregion":"Northern Africa","language":"Arabic,English"},
{"name":"Suriname","nativeName":"Suriname","tld":".sr","cca2":"SR","ccn3":"740","cca3":"SUR","currency":"SRD","callingCode":"597","capital":"Paramaribo","altSpellings":"SR,Sarnam,Sranangron,Republic of Suriname,Republiek Suriname","relevance":"0","region":"Americas","subregion":"South America","language":"Dutch"},
{"name":"Swaziland","nativeName":"Swaziland","tld":".sz","cca2":"SZ","ccn3":"748","cca3":"SWZ","currency":"SZL","callingCode":"268","capital":"Lobamba","altSpellings":"SZ,weSwatini,Swatini,Ngwane,Kingdom of Swaziland,Umbuso waseSwatini","relevance":"0","region":"Africa","subregion":"Southern Africa","language":"Swazi,English"},
{"name":"Sweden","nativeName":"Sverige","tld":".se","cca2":"SE","ccn3":"752","cca3":"SWE","currency":"SEK","callingCode":"46","capital":"Stockholm","altSpellings":"SE,Kingdom of Sweden,Konungariket Sverige","relevance":"1.5","region":"Europe","subregion":"Northern Europe","language":"Swedish"},
{"name":"Switzerland","nativeName":"Schweiz","tld":".ch","cca2":"CH","ccn3":"756","cca3":"CHE","currency":"CHE,CHF,CHW","callingCode":"41","capital":"Bern","altSpellings":"CH,Swiss Confederation,Schweiz,Suisse,Svizzera,Svizra","relevance":"1.5","region":"Europe","subregion":"Western Europe","language":"German,French,Italian,Romansh"},
{"name":"Syria","nativeName":"S\u016briy\u0101","tld":".sy","cca2":"SY","ccn3":"760","cca3":"SYR","currency":"SYP","callingCode":"963","capital":"Damascus","altSpellings":"SY,Syrian Arab Republic,Al-Jumh\u016br\u012byah Al-\u02bbArab\u012byah As-S\u016br\u012byah","relevance":"0","region":"Asia","subregion":"Western Asia","language":"Arabic"},
{"name":"Taiwan","nativeName":"\u81fa\u7063","tld":".tw","cca2":"TW","ccn3":"158","cca3":"TWN","currency":"TWD","callingCode":"886","capital":"Taipei","altSpellings":"TW,T\u00e1iw\u0101n,Republic of China,\u4e2d\u83ef\u6c11\u570b,Zh\u014dnghu\u00e1 M\u00edngu\u00f3","relevance":"0","region":"Asia","subregion":"Eastern Asia","language":"Standard Chinese"},
{"name":"Tajikistan","nativeName":"\u0422\u043e\u04b7\u0438\u043a\u0438\u0441\u0442\u043e\u043d","tld":".tj","cca2":"TJ","ccn3":"762","cca3":"TJK","currency":"TJS","callingCode":"992","capital":"Dushanbe","altSpellings":"TJ,To\u00e7ikiston,Republic of Tajikistan,\u04b6\u0443\u043c\u04b3\u0443\u0440\u0438\u0438 \u0422\u043e\u04b7\u0438\u043a\u0438\u0441\u0442\u043e\u043d,\u00c7umhuriyi To\u00e7ikiston","relevance":"0","region":"Asia","subregion":"Central Asia","language":"Tajik"},
{"name":"Tanzania","nativeName":"Tanzania","tld":".tz","cca2":"TZ","ccn3":"834","cca3":"TZA","currency":"TZS","callingCode":"255","capital":"Dodoma","altSpellings":"TZ,United Republic of Tanzania,Jamhuri ya Muungano wa Tanzania","relevance":"0","region":"Africa","subregion":"Eastern Africa","language":"Swahili,English"},
{"name":"Thailand","nativeName":"\u0e1b\u0e23\u0e30\u0e40\u0e17\u0e28\u0e44\u0e17\u0e22","tld":".th","cca2":"TH","ccn3":"764","cca3":"THA","currency":"THB","callingCode":"66","capital":"Bangkok","altSpellings":"TH,Prathet,Thai,Kingdom of Thailand,\u0e23\u0e32\u0e0a\u0e2d\u0e32\u0e13\u0e32\u0e08\u0e31\u0e01\u0e23\u0e44\u0e17\u0e22,Ratcha Anachak Thai","relevance":"0","region":"Asia","subregion":"South-Eastern Asia","language":"Thai"},
{"name":"Timor-Leste","nativeName":"Timor-Leste","tld":".tl","cca2":"TL","ccn3":"626","cca3":"TLS","currency":"USD","callingCode":"670","capital":"Dili","altSpellings":"TL,East Timor,Democratic Republic of Timor-Leste,Rep\u00fablica Democr\u00e1tica de Timor-Leste,Rep\u00fablika Demokr\u00e1tika Tim\u00f3r-Leste","relevance":"0","region":"Asia","subregion":"South-Eastern Asia","language":"Portuguese,Tetum"},
{"name":"Togo","nativeName":"Togo","tld":".tg","cca2":"TG","ccn3":"768","cca3":"TGO","currency":"XOF","callingCode":"228","capital":"Lom\u00e9","altSpellings":"TG,Togolese,Togolese Republic,R\u00e9publique Togolaise","relevance":"0","region":"Africa","subregion":"Western Africa","language":"French"},
{"name":"Tunisia","nativeName":"T\u016bnis","tld":".tn","cca2":"TN","ccn3":"788","cca3":"TUN","currency":"TND","callingCode":"216","capital":"Tunis","altSpellings":"TN,Republic of Tunisia,al-Jumh\u016briyyah at-T\u016bnisiyyah","relevance":"0","region":"Africa","subregion":"Northern Africa","language":"Arabic"},
{"name":"Turkey","nativeName":"T\u00fcrkiye","tld":".tr","cca2":"TR","ccn3":"792","cca3":"TUR","currency":"TRY","callingCode":"90","capital":"Ankara","altSpellings":"TR,Turkiye,Republic of Turkey,T\u00fcrkiye Cumhuriyeti","relevance":"0","region":"Asia","subregion":"Western Asia","language":"Turkish"},
{"name":"Turkmenistan","nativeName":"T\u00fcrkmenistan","tld":".tm","cca2":"TM","ccn3":"795","cca3":"TKM","currency":"TMT","callingCode":"993","capital":"Ashgabat","altSpellings":"TM","relevance":"0","region":"Asia","subregion":"Central Asia","language":"Turkmen"},
{"name":"Tuvalu","nativeName":"Tuvalu","tld":".tv","cca2":"TV","ccn3":"798","cca3":"TUV","currency":"AUD","callingCode":"688","capital":"Funafuti","altSpellings":"TV","relevance":"0.5","region":"Oceania","subregion":"Polynesia","language":"Tuvaluan,English"},
{"name":"Uganda","nativeName":"Uganda","tld":".ug","cca2":"UG","ccn3":"800","cca3":"UGA","currency":"UGX","callingCode":"256","capital":"Kampala","altSpellings":"UG,Republic of Uganda,Jamhuri ya Uganda","relevance":"0","region":"Africa","subregion":"Eastern Africa","language":"English,Swahili"},
{"name":"Ukraine","nativeName":"\u0423\u043a\u0440\u0430\u0457\u043d\u0430","tld":".ua","cca2":"UA","ccn3":"804","cca3":"UKR","currency":"UAH","callingCode":"380","capital":"Kiev","altSpellings":"UA,Ukrayina","relevance":"0","region":"Europe","subregion":"Eastern Europe","language":"Ukrainian"},
{"name":"United Arab Emirates","nativeName":"Dawlat al-\u02beIm\u0101r\u0101t al-\u02bfArabiyyah al-Mutta\u1e25idah","tld":".ae","cca2":"AE","ccn3":"784","cca3":"ARE","currency":"AED","callingCode":"971","capital":"Abu Dhabi","altSpellings":"AE,UAE","relevance":"0","region":"Asia","subregion":"Western Asia","language":"Arabic"},
{"name":"United Kingdom","nativeName":"United Kingdom","tld":".uk","cca2":"GB","ccn3":"826","cca3":"GBR","currency":"GBP","callingCode":"44","capital":"London","altSpellings":"GB,UK,Great Britain","relevance":"2.5","region":"Europe","subregion":"Northern Europe","language":"English"},
{"name":"United States","nativeName":"United States","tld":".us","cca2":"US","ccn3":"840","cca3":"USA","currency":"USD,USN,USS","callingCode":"1","capital":"Washington D.C.","altSpellings":"US,USA,United States of America","relevance":"3.5","region":"Americas","subregion":"Northern America","language":"English"},
{"name":"Uruguay","nativeName":"Uruguay","tld":".uy","cca2":"UY","ccn3":"858","cca3":"URY","currency":"UYI,UYU","callingCode":"598","capital":"Montevideo","altSpellings":"UY,Oriental Republic of Uruguay,Rep\u00fablica Oriental del Uruguay","relevance":"0","region":"Americas","subregion":"South America","language":"Spanish"},
{"name":"Uzbekistan","nativeName":"O\u2018zbekiston","tld":".uz","cca2":"UZ","ccn3":"860","cca3":"UZB","currency":"UZS","callingCode":"998","capital":"Tashkent","altSpellings":"UZ,Republic of Uzbekistan,O\u2018zbekiston Respublikasi,\u040e\u0437\u0431\u0435\u043a\u0438\u0441\u0442\u043e\u043d \u0420\u0435\u0441\u043f\u0443\u0431\u043b\u0438\u043a\u0430\u0441\u0438","relevance":"0","region":"Asia","subregion":"Central Asia","language":"Uzbek"},
{"name":"Vanuatu","nativeName":"Vanuatu","tld":".vu","cca2":"VU","ccn3":"548","cca3":"VUT","currency":"VUV","callingCode":"678","capital":"Port Vila","altSpellings":"VU,Republic of Vanuatu,Ripablik blong Vanuatu,R\u00e9publique de Vanuatu","relevance":"0","region":"Oceania","subregion":"Melanesia","language":"Bislama,French,English"},
{"name":"Venezuela","nativeName":"Venezuela","tld":".ve","cca2":"VE","ccn3":"862","cca3":"VEN","currency":"VEF","callingCode":"58","capital":"Caracas","altSpellings":"VE,Bolivarian Republic of Venezuela,Rep\u00fablica Bolivariana de Venezuela","relevance":"0","region":"Americas","subregion":"South America","language":"Spanish"},
{"name":"Vietnam","nativeName":"Vi\u1ec7t Nam","tld":".vn","cca2":"VN","ccn3":"704","cca3":"VNM","currency":"VND","callingCode":"84","capital":"Hanoi","altSpellings":"VN,Socialist Republic of Vietnam,C\u1ed9ng h\u00f2a X\u00e3 h\u1ed9i ch\u1ee7 ngh\u0129a Vi\u1ec7t Nam","relevance":"1.5","region":"Asia","subregion":"South-Eastern Asia","language":"Vietnamese"},
{"name":"Yemen","nativeName":"al-Yaman","tld":".ye","cca2":"YE","ccn3":"887","cca3":"YEM","currency":"YER","callingCode":"967","capital":"Sana'a","altSpellings":"YE,Yemeni Republic,al-Jumh\u016briyyah al-Yamaniyyah","relevance":"0","region":"Asia","subregion":"Western Asia","language":"Arabic"},
{"name":"Zambia","nativeName":"Zambia","tld":".zm","cca2":"ZM","ccn3":"894","cca3":"ZMB","currency":"ZMK","callingCode":"260","capital":"Lusaka","altSpellings":"ZM,Republic of Zambia","relevance":"0","region":"Africa","subregion":"Eastern Africa","language":"English"},
{"name":"Zimbabwe","nativeName":"Zimbabwe","tld":".zw","cca2":"ZW","ccn3":"716","cca3":"ZWE","currency":"ZWL","callingCode":"263","capital":"Harare","altSpellings":"ZW,Republic of Zimbabwe","relevance":"0","region":"Africa","subregion":"Eastern Africa","language":"Chewa,Chibarwe,English,Kalanga,Koisan,Nambya,Ndau,Ndebele,Shangani,Shona,Zimbabwean sign language,Sotho,Tonga,Tswana,Venda,Xhosa"}]
